HAWK-6B                 
1 55324U 23011A   26166.93713986  .00004419  00000+0  19252-3 0  9992
2 55324  40.4997 359.3628 0002526 351.4672   8.6094 15.22924458187659
HAWK-6C                 
1 55326U 23011C   26166.93647451  .00003833  00000+0  16810-3 0  9993
2 55326  40.4991 356.2051 0003493 342.6269  17.4420 15.22920976187662
HAWK-6A                 
1 55327U 23011D   26166.93652944  .00004263  00000+0  18602-3 0  9996
2 55327  40.4997 357.8299 0003191 339.9740  20.0944 15.22922068187663
HAWK-7A                 
1 56191U 23054P   26167.19316310  .00004536  00000+0  17201-3 0  9993
2 56191  97.2704  54.5559 0004401  59.6781 300.4893 15.27352306176871
HAWK-7B                 
1 56193U 23054R   26167.19307764  .00004525  00000+0  17163-3 0  9993
2 56193  97.2730  52.8195 0003777  70.4332 289.7315 15.27350238176877
HAWK-7C                 
1 56200U 23054Y   26167.19296758  .00004466  00000+0  16944-3 0  9992
2 56200  97.2707  53.5885 0003752  62.1963 297.9656 15.27352013176877
