OBJECT_NAME,OBJECT_ID,EPOCH,MEAN_MOTION,ECCENTRICITY,INCLINATION,RA_OF_ASC_NODE,ARG_OF_PERICENTER,MEAN_ANOMALY,EPHEMERIS_TYPE,CLASSIFICATION_TYPE,NORAD_CAT_ID,ELEMENT_SET_NO,REV_AT_EPOCH,BSTAR,MEAN_MOTION_DOT,MEAN_MOTION_DDOT
HAWK-6B,2023-011A,2026-06-15T22:29:28.883904,15.22924458,.0002526,40.4997,359.3628,351.4672,8.6094,0,U,55324,999,18765,.19252E-3,.4419E-4,0
HAWK-6C,2023-011C,2026-06-15T22:28:31.397664,15.22920976,.0003493,40.4991,356.2051,342.6269,17.4420,0,U,55326,999,18766,.1681E-3,.3833E-4,0
HAWK-6A,2023-011D,2026-06-15T22:28:36.143616,15.22922068,.0003191,40.4997,357.8299,339.9740,20.0944,0,U,55327,999,18766,.18602E-3,.4263E-4,0
HAWK-7A,2023-054P,2026-06-16T04:38:09.291840,15.27352306,.0004401,97.2704,54.5559,59.6781,300.4893,0,U,56191,999,17687,.17201E-3,.4536E-4,0
HAWK-7B,2023-054R,2026-06-16T04:38:01.908096,15.27350238,.0003777,97.2730,52.8195,70.4332,289.7315,0,U,56193,999,17687,.17163E-3,.4525E-4,0
HAWK-7C,2023-054Y,2026-06-16T04:37:52.398912,15.27352013,.0003752,97.2707,53.5885,62.1963,297.9656,0,U,56200,999,17687,.16944E-3,.4466E-4,0
